{
  "norad_id": 44337,
  "name": "BEIDOU-3 IGSO-2",
  "history": [
    {
      "epoch": "2026-03-27T19:44:54.998592Z",
      "apogee_km": 35945.56416683062,
      "perigee_km": 35616.34298534016,
      "latitude_deg": 53.95969403594469,
      "longitude_deg": 110.2180012806361,
      "height_km": 35903.246735203895,
      "semi_major_axis_km": 42159.09057608539,
      "eccentricity": 0.00390451,
      "inclination_deg": 55.2326,
      "raan_deg": 159.578,
      "arg_perigee_deg": 213.6954,
      "mean_anomaly_deg": 226.2541,
      "mean_motion_rev_day": 1.00291912
    }
  ]
}